CCSDS_OMM_VERS = 2.0
CREATION_DATE  = 
ORIGINATOR     = 

OBJECT_NAME    = STARLINK-35865
OBJECT_ID      = 2026-033F
CENTER_NAME    = EARTH
REF_FRAME      = TEME
TIME_SYSTEM    = UTC
MEAN_ELEMENT_THEORY = SGP/SGP4

EPOCH          = 2026-03-10T21:21:44.554464
MEAN_MOTION    = 15.82169807
ECCENTRICITY   = .0001713
INCLINATION    = 42.9982
RA_OF_ASC_NODE = 264.1151
ARG_OF_PERICENTER = 281.6782
MEAN_ANOMALY   = 78.3898

EPHEMERIS_TYPE = 0
CLASSIFICATION_TYPE = U
NORAD_CAT_ID   = 67826
ELEMENT_SET_NO = 999
REV_AT_EPOCH   = 481
BSTAR          = .27797E-2
MEAN_MOTION_DOT = .634303E-2
MEAN_MOTION_DDOT = 0

CCSDS_OMM_VERS = 2.0
CREATION_DATE  = 
ORIGINATOR     = 

OBJECT_NAME    = STARLINK-36289
OBJECT_ID      = 2026-033G
CENTER_NAME    = EARTH
REF_FRAME      = TEME
TIME_SYSTEM    = UTC
MEAN_ELEMENT_THEORY = SGP/SGP4

EPOCH          = 2026-03-11T06:00:02.000160
MEAN_MOTION    = 15.79195728
ECCENTRICITY   = .00015869
INCLINATION    = 42.9994
RA_OF_ASC_NODE = 261.9075
ARG_OF_PERICENTER = 264.5842
MEAN_ANOMALY   = 348.6188

EPHEMERIS_TYPE = 0
CLASSIFICATION_TYPE = U
NORAD_CAT_ID   = 67827
ELEMENT_SET_NO = 999
REV_AT_EPOCH   = 491
BSTAR          = -.12161638E-1
MEAN_MOTION_DOT = -.1952028E-1
MEAN_MOTION_DDOT = 0

CCSDS_OMM_VERS = 2.0
CREATION_DATE  = 
ORIGINATOR     = 

OBJECT_NAME    = STARLINK-36670
OBJECT_ID      = 2026-033H
CENTER_NAME    = EARTH
REF_FRAME      = TEME
TIME_SYSTEM    = UTC
MEAN_ELEMENT_THEORY = SGP/SGP4

EPOCH          = 2026-03-10T21:19:35.323392
MEAN_MOTION    = 15.82137911
ECCENTRICITY   = .0002069
INCLINATION    = 42.9984
RA_OF_ASC_NODE = 264.1031
ARG_OF_PERICENTER = 319.1211
MEAN_ANOMALY   = 40.9505

EPHEMERIS_TYPE = 0
CLASSIFICATION_TYPE = U
NORAD_CAT_ID   = 67828
ELEMENT_SET_NO = 999
REV_AT_EPOCH   = 481
BSTAR          = .23515E-2
MEAN_MOTION_DOT = .529095E-2
MEAN_MOTION_DDOT = 0

CCSDS_OMM_VERS = 2.0
CREATION_DATE  = 
ORIGINATOR     = 

OBJECT_NAME    = STARLINK-36144
OBJECT_ID      = 2026-033J
CENTER_NAME    = EARTH
REF_FRAME      = TEME
TIME_SYSTEM    = UTC
MEAN_ELEMENT_THEORY = SGP/SGP4

EPOCH          = 2026-03-11T00:20:25.989216
MEAN_MOTION    = 15.81396851
ECCENTRICITY   = .00034781
INCLINATION    = 42.9976
RA_OF_ASC_NODE = 263.3234
ARG_OF_PERICENTER = 278.2148
MEAN_ANOMALY   = 81.8329

EPHEMERIS_TYPE = 0
CLASSIFICATION_TYPE = U
NORAD_CAT_ID   = 67829
ELEMENT_SET_NO = 999
REV_AT_EPOCH   = 483
BSTAR          = -.23805274E-2
MEAN_MOTION_DOT = -.462674E-2
MEAN_MOTION_DDOT = 0

CCSDS_OMM_VERS = 2.0
CREATION_DATE  = 
ORIGINATOR     = 

OBJECT_NAME    = STARLINK-36611
OBJECT_ID      = 2026-033K
CENTER_NAME    = EARTH
REF_FRAME      = TEME
TIME_SYSTEM    = UTC
MEAN_ELEMENT_THEORY = SGP/SGP4

EPOCH          = 2026-03-10T21:17:25.639584
MEAN_MOTION    = 15.82149627
ECCENTRICITY   = .0001997
INCLINATION    = 42.9979
RA_OF_ASC_NODE = 264.0902
ARG_OF_PERICENTER = 279.7507
MEAN_ANOMALY   = 80.3139

EPHEMERIS_TYPE = 0
CLASSIFICATION_TYPE = U
NORAD_CAT_ID   = 67830
ELEMENT_SET_NO = 999
REV_AT_EPOCH   = 481
BSTAR          = .24138E-2
MEAN_MOTION_DOT = .544406E-2
MEAN_MOTION_DDOT = 0

CCSDS_OMM_VERS = 2.0
CREATION_DATE  = 
ORIGINATOR     = 

OBJECT_NAME    = STARLINK-36661
OBJECT_ID      = 2026-033L
CENTER_NAME    = EARTH
REF_FRAME      = TEME
TIME_SYSTEM    = UTC
MEAN_ELEMENT_THEORY = SGP/SGP4

EPOCH          = 2026-03-10T00:03:35.155872
MEAN_MOTION    = 15.82108507
ECCENTRICITY   = .00026016
INCLINATION    = 42.9981
RA_OF_ASC_NODE = 269.5016
ARG_OF_PERICENTER = 265.6555
MEAN_ANOMALY   = 94.4019

EPHEMERIS_TYPE = 0
CLASSIFICATION_TYPE = U
NORAD_CAT_ID   = 67831
ELEMENT_SET_NO = 999
REV_AT_EPOCH   = 467
BSTAR          = .13607558E-2
MEAN_MOTION_DOT = .29735E-2
MEAN_MOTION_DDOT = 0

CCSDS_OMM_VERS = 2.0
CREATION_DATE  = 
ORIGINATOR     = 

OBJECT_NAME    = STARLINK-36662
OBJECT_ID      = 2026-033M
CENTER_NAME    = EARTH
REF_FRAME      = TEME
TIME_SYSTEM    = UTC
MEAN_ELEMENT_THEORY = SGP/SGP4

EPOCH          = 2026-03-10T21:15:09.626976
MEAN_MOTION    = 15.84536561
ECCENTRICITY   = .0001528
INCLINATION    = 42.9967
RA_OF_ASC_NODE = 263.1677
ARG_OF_PERICENTER = 285.0209
MEAN_ANOMALY   = 75.0494

EPHEMERIS_TYPE = 0
CLASSIFICATION_TYPE = U
NORAD_CAT_ID   = 67832
ELEMENT_SET_NO = 999
REV_AT_EPOCH   = 482
BSTAR          = .21755E-2
MEAN_MOTION_DOT = .549467E-2
MEAN_MOTION_DDOT = 0

CCSDS_OMM_VERS = 2.0
CREATION_DATE  = 
ORIGINATOR     = 

OBJECT_NAME    = STARLINK-36659
OBJECT_ID      = 2026-033N
CENTER_NAME    = EARTH
REF_FRAME      = TEME
TIME_SYSTEM    = UTC
MEAN_ELEMENT_THEORY = SGP/SGP4

EPOCH          = 2026-03-10T21:15:15.984288
MEAN_MOTION    = 15.82155791
ECCENTRICITY   = .0001992
INCLINATION    = 42.9978
RA_OF_ASC_NODE = 264.0779
ARG_OF_PERICENTER = 269.6927
MEAN_ANOMALY   = 90.3717

EPHEMERIS_TYPE = 0
CLASSIFICATION_TYPE = U
NORAD_CAT_ID   = 67833
ELEMENT_SET_NO = 999
REV_AT_EPOCH   = 481
BSTAR          = .24307E-2
MEAN_MOTION_DOT = .548655E-2
MEAN_MOTION_DDOT = 0

CCSDS_OMM_VERS = 2.0
CREATION_DATE  = 
ORIGINATOR     = 

OBJECT_NAME    = STARLINK-36655
OBJECT_ID      = 2026-033P
CENTER_NAME    = EARTH
REF_FRAME      = TEME
TIME_SYSTEM    = UTC
MEAN_ELEMENT_THEORY = SGP/SGP4

EPOCH          = 2026-03-10T22:45:05.221440
MEAN_MOTION    = 15.82083451
ECCENTRICITY   = .0002002
INCLINATION    = 42.9979
RA_OF_ASC_NODE = 263.6849
ARG_OF_PERICENTER = 256.8871
MEAN_ANOMALY   = 103.1777

EPHEMERIS_TYPE = 0
CLASSIFICATION_TYPE = U
NORAD_CAT_ID   = 67834
ELEMENT_SET_NO = 999
REV_AT_EPOCH   = 482
BSTAR          = .8662E-3
MEAN_MOTION_DOT = .18643E-2
MEAN_MOTION_DDOT = 0

CCSDS_OMM_VERS = 2.0
CREATION_DATE  = 
ORIGINATOR     = 

OBJECT_NAME    = STARLINK-36657
OBJECT_ID      = 2026-033Q
CENTER_NAME    = EARTH
REF_FRAME      = TEME
TIME_SYSTEM    = UTC
MEAN_ELEMENT_THEORY = SGP/SGP4

EPOCH          = 2026-03-10T21:12:54.412704
MEAN_MOTION    = 15.82980376
ECCENTRICITY   = .0003179
INCLINATION    = 42.9975
RA_OF_ASC_NODE = 264.0647
ARG_OF_PERICENTER = 271.1022
MEAN_ANOMALY   = 88.9486

EPHEMERIS_TYPE = 0
CLASSIFICATION_TYPE = U
NORAD_CAT_ID   = 67835
ELEMENT_SET_NO = 999
REV_AT_EPOCH   = 481
BSTAR          = .40248E-2
MEAN_MOTION_DOT = .995188E-2
MEAN_MOTION_DDOT = 0

CCSDS_OMM_VERS = 2.0
CREATION_DATE  = 
ORIGINATOR     = 

OBJECT_NAME    = STARLINK-36650
OBJECT_ID      = 2026-033R
CENTER_NAME    = EARTH
REF_FRAME      = TEME
TIME_SYSTEM    = UTC
MEAN_ELEMENT_THEORY = SGP/SGP4

EPOCH          = 2026-03-11T06:00:02.000160
MEAN_MOTION    = 15.77786829
ECCENTRICITY   = .00016848
INCLINATION    = 42.9996
RA_OF_ASC_NODE = 261.8320
ARG_OF_PERICENTER = 262.6143
MEAN_ANOMALY   = 20.4781

EPHEMERIS_TYPE = 0
CLASSIFICATION_TYPE = U
NORAD_CAT_ID   = 67836
ELEMENT_SET_NO = 999
REV_AT_EPOCH   = 491
BSTAR          = -.12910633E-1
MEAN_MOTION_DOT = -.1944188E-1
MEAN_MOTION_DDOT = 0

CCSDS_OMM_VERS = 2.0
CREATION_DATE  = 
ORIGINATOR     = 

OBJECT_NAME    = STARLINK-36649
OBJECT_ID      = 2026-033S
CENTER_NAME    = EARTH
REF_FRAME      = TEME
TIME_SYSTEM    = UTC
MEAN_ELEMENT_THEORY = SGP/SGP4

EPOCH          = 2026-03-11T00:12:45.896256
MEAN_MOTION    = 15.82065557
ECCENTRICITY   = .00025782
INCLINATION    = 42.9985
RA_OF_ASC_NODE = 263.2785
ARG_OF_PERICENTER = 259.9152
MEAN_ANOMALY   = 100.1429

EPHEMERIS_TYPE = 0
CLASSIFICATION_TYPE = U
NORAD_CAT_ID   = 67837
ELEMENT_SET_NO = 999
REV_AT_EPOCH   = 483
BSTAR          = .10852494E-2
MEAN_MOTION_DOT = .234845E-2
MEAN_MOTION_DDOT = 0

